{"type": "FeatureCollection", "features": [ {"type": "Feature", "properties": {"norad_id": 31326, "name": "FENGYUN 1C DEB", "group": "fengyun-1c-debris", "lat": 28.636275847898222, "lon": -135.03878756180202, "alt_km": 564.9281266493063, "timestamp": "2025-12-13T18:50:04.712892+00:00", "meta": {"OBJECT_NAME": "FENGYUN 1C DEB", "OBJECT_ID": "1999-025BQE", "EPOCH": "2025-11-25T14:42:32.298048", "MEAN_MOTION": 14.96360134, "ECCENTRICITY": 0.00187059, "INCLINATION": 99.013, "RA_OF_ASC_NODE": 208.9742, "ARG_OF_PERICENTER": 1.9794, "MEAN_ANOMALY": 358.1494, "EPHEMERIS_TYPE": 0, "CLASSIFICATION_TYPE": "U", "NORAD_CAT_ID": 31326, "ELEMENT_SET_NO": 999, "REV_AT_EPOCH": 73489, "BSTAR": 0.0084230344, "MEAN_MOTION_DOT": 0.00096893, "MEAN_MOTION_DDOT": 0}, "tle": {"line1": "1 31326U 99025BQE 25329.61287382  .00096893  00000+0  84230-2 0  9991", "line2": "2 31326  99.0130 208.9742 0018705   1.9794 358.1494 14.96360134734894"}}, "geometry": {"type": "Point", "coordinates": [-135.03878756180202, 28.636275847898222]}}, {"type": "Feature", "properties": {"norad_id": 31327, "name": "FENGYUN 1C DEB", "group": "fengyun-1c-debris", "lat": -53.92981511740842, "lon": 156.80032293983805, "alt_km": 579.8585254598756, "timestamp": "2025-12-13T18:50:04.712903+00:00", "meta": {"OBJECT_NAME": "FENGYUN 1C DEB", "OBJECT_ID": "1999-025BQF", "EPOCH": "2025-12-13T06:40:13.406016", "MEAN_MOTION": 15.10956545, "ECCENTRICITY": 0.00866466, "INCLINATION": 98.9857, "RA_OF_ASC_NODE": 348.7524, "ARG_OF_PERICENTER": 8.4698, "MEAN_ANOMALY": 351.7966, "EPHEMERIS_TYPE": 0, "CLASSIFICATION_TYPE": "U", "NORAD_CAT_ID": 31327, "ELEMENT_SET_NO": 999, "REV_AT_EPOCH": 107, "BSTAR": 0.0026298954, "MEAN_MOTION_DOT": 0.0004819, "MEAN_MOTION_DDOT": 0}, "tle": {"line1": "1 31327U 99025BQF 25347.27793294  .00048190  00000+0  26299-2 0  9996", "line2": "2 31327  98.9857 348.7524 0086646   8.4698 351.7966 15.10956545  1078"}}, "geometry": {"type": "Point", "coordinates": [156.80032293983805, -53.92981511740842]}}, {"type": "Feature", "properties": {"norad_id": 31328, "name": "FENGYUN 1C DEB", "group": "fengyun-1c-debris", "lat": 81.1415195656917, "lon": -145.2161155659988, "alt_km": 825.3322879908237, "timestamp": "2025-12-13T18:50:04.712913+00:00", "meta": {"OBJECT_NAME": "FENGYUN 1C DEB", "OBJECT_ID": "1999-025BQG", "EPOCH": "2025-12-12T08:47:04.591104", "MEAN_MOTION": 14.28944572, "ECCENTRICITY": 0.01035932, "INCLINATION": 98.4833, "RA_OF_ASC_NODE": 320.1432, "ARG_OF_PERICENTER": 217.5445, "MEAN_ANOMALY": 141.8472, "EPHEMERIS_TYPE": 0, "CLASSIFICATION_TYPE": "U", "NORAD_CAT_ID": 31328, "ELEMENT_SET_NO": 999, "REV_AT_EPOCH": 97457, "BSTAR": 0.00012675973, "MEAN_MOTION_DOT": 2.96e-06, "MEAN_MOTION_DDOT": 0}, "tle": {"line1": "1 31328U 99025BQG 25346.36602536  .00000296  00000+0  12676-3 0  9994", "line2": "2 31328  98.4833 320.1432 0103593 217.5445 141.8472 14.28944572974573"}}, "geometry": {"type": "Point", "coordinates": [-145.2161155659988, 81.1415195656917]}}, {"type": "Feature", "properties": {"norad_id": 31330, "name": "FENGYUN 1C DEB", "group": "fengyun-1c-debris", "lat": 17.165235445045287, "lon": -24.838914226823825, "alt_km": 532.0400696913157, "timestamp": "2025-12-13T18:50:04.712924+00:00", "meta": {"OBJECT_NAME": "FENGYUN 1C DEB", "OBJECT_ID": "1999-025BQJ", "EPOCH": "2025-12-12T22:08:22.462080", "MEAN_MOTION": 15.1070132, "ECCENTRICITY": 0.00047894, "INCLINATION": 98.884, "RA_OF_ASC_NODE": 151.3917, "ARG_OF_PERICENTER": 229.3393, "MEAN_ANOMALY": 285.8895, "EPHEMERIS_TYPE": 0, "CLASSIFICATION_TYPE": "U", "NORAD_CAT_ID": 31330, "ELEMENT_SET_NO": 999, "REV_AT_EPOCH": 97132, "BSTAR": 0.012861868, "MEAN_MOTION_DOT": 0.0021952, "MEAN_MOTION_DDOT": 0}, "tle": {"line1": "1 31330U 99025BQJ 25346.92248220  .00219520  00000+0  12862-1 0  9992", "line2": "2 31330  98.8840 151.3917 0004789 229.3393 285.8895 15.10701320971322"}}, "geometry": {"type": "Point", "coordinates": [-24.838914226823825, 17.165235445045287]}}, {"type": "Feature", "properties": {"norad_id": 31331, "name": "FENGYUN 1C DEB", "group": "fengyun-1c-debris", "lat": -32.620583600866986, "lon": 19.32388119042453, "alt_km": 930.1732364799655, "timestamp": "2025-12-13T18:50:04.712934+00:00", "meta": {"OBJECT_NAME": "FENGYUN 1C DEB", "OBJECT_ID": "1999-025BQK", "EPOCH": "2025-12-11T06:59:13.035840", "MEAN_MOTION": 14.00618538, "ECCENTRICITY": 0.005317, "INCLINATION": 98.8724, "RA_OF_ASC_NODE": 11.1656, "ARG_OF_PERICENTER": 186.5995, "MEAN_ANOMALY": 173.4476, "EPHEMERIS_TYPE": 0, "CLASSIFICATION_TYPE": "U", "NORAD_CAT_ID": 31331, "ELEMENT_SET_NO": 999, "REV_AT_EPOCH": 63836, "BSTAR": 0.00045408515, "MEAN_MOTION_DOT": 6.41e-06, "MEAN_MOTION_DDOT": 0}, "tle": {"line1": "1 31331U 99025BQK 25345.29112310  .00000641  00000+0  45409-3 0  9999", "line2": "2 31331  98.8724  11.1656 0053170 186.5995 173.4476 14.00618538638364"}}, "geometry": {"type": "Point", "coordinates": [19.32388119042453, -32.620583600866986]}}, {"type": "Feature", "properties": {"norad_id": 31332, "name": "FENGYUN 1C DEB", "group": "fengyun-1c-debris", "lat": -7.212776776459019, "lon": 176.977788860338, "alt_km": 891.6761767742346, "timestamp": "2025-12-13T18:50:04.712948+00:00", "meta": {"OBJECT_NAME": "FENGYUN 1C DEB", "OBJECT_ID": "1999-025BQL", "EPOCH": "2025-12-12T23:23:00.295872", "MEAN_MOTION": 14.11844116, "ECCENTRICITY": 0.00498817, "INCLINATION": 98.7056, "RA_OF_ASC_NODE": 357.3023, "ARG_OF_PERICENTER": 24.5239, "MEAN_ANOMALY": 5.4896, "EPHEMERIS_TYPE": 0, "CLASSIFICATION_TYPE": "U", "NORAD_CAT_ID": 31332, "ELEMENT_SET_NO": 999, "REV_AT_EPOCH": 95975, "BSTAR": 0.0014459486, "MEAN_MOTION_DOT": 2.628e-05, "MEAN_MOTION_DDOT": 0}, "tle": {"line1": "1 31332U 99025BQL 25346.97430898  .00002628  00000+0  14459-2 0  9997", "line2": "2 31332  98.7056 357.3023 0049881  24.5239   5.4896 14.11844116959755"}}, "geometry": {"type": "Point", "coordinates": [176.977788860338, -7.212776776459019]}}, {"type": "Feature", "properties": {"norad_id": 31333, "name": "FENGYUN 1C DEB", "group": "fengyun-1c-debris", "lat": 78.3124121005629, "lon": -131.89301454574195, "alt_km": 776.5512362485051, "timestamp": "2025-12-13T18:50:04.712961+00:00", "meta": {"OBJECT_NAME": "FENGYUN 1C DEB", "OBJECT_ID": "1999-025BQM", "EPOCH": "2025-12-12T18:49:01.084512", "MEAN_MOTION": 14.26541083, "ECCENTRICITY": 0.00986515, "INCLINATION": 98.4285, "RA_OF_ASC_NODE": 1.3563, "ARG_OF_PERICENTER": 26.4018, "MEAN_ANOMALY": 334.2142, "EPHEMERIS_TYPE": 0, "CLASSIFICATION_TYPE": "U", "NORAD_CAT_ID": 31333, "ELEMENT_SET_NO": 999, "REV_AT_EPOCH": 96592, "BSTAR": 0.0010969525, "MEAN_MOTION_DOT": 2.744e-05, "MEAN_MOTION_DDOT": 0}, "tle": {"line1": "1 31333U 99025BQM 25346.78404033  .00002744  00000+0  10970-2 0  9992", "line2": "2 31333  98.4285   1.3563 0098651  26.4018 334.2142 14.26541083965923"}}, "geometry": {"type": "Point", "coordinates": [-131.89301454574195, 78.3124121005629]}}, {"type": "Feature", "properties": {"norad_id": 31336, "name": "FENGYUN 1C DEB", "group": "fengyun-1c-debris", "lat": -68.26443764601471, "lon": -158.9367617960291, "alt_km": 816.6511362835872, "timestamp": "2025-12-13T18:50:04.712972+00:00", "meta": {"OBJECT_NAME": "FENGYUN 1C DEB", "OBJECT_ID": "1999-025BQQ", "EPOCH": "2025-12-12T15:40:36.276096", "MEAN_MOTION": 14.38700612, "ECCENTRICITY": 0.00939779, "INCLINATION": 98.4653, "RA_OF_ASC_NODE": 41.8827, "ARG_OF_PERICENTER": 118.8628, "MEAN_ANOMALY": 32.7927, "EPHEMERIS_TYPE": 0, "CLASSIFICATION_TYPE": "U", "NORAD_CAT_ID": 31336, "ELEMENT_SET_NO": 999, "REV_AT_EPOCH": 97789, "BSTAR": 0.00049475681, "MEAN_MOTION_DOT": 1.553e-05, "MEAN_MOTION_DDOT": 0}, "tle": {"line1": "1 31336U 99025BQQ 25346.65319764  .00001553  00000+0  49476-3 0  9998", "line2": "2 31336  98.4653  41.8827 0093977 118.8628  32.7927 14.38700612977894"}}, "geometry": {"type": "Point", "coordinates": [-158.9367617960291, -68.26443764601471]}}, {"type": "Feature", "properties": {"norad_id": 31338, "name": "FENGYUN 1C DEB", "group": "fengyun-1c-debris", "lat": 61.58732673740721, "lon": 24.25486992137927, "alt_km": 766.1809831422061, "timestamp": "2025-12-13T18:50:04.712983+00:00", "meta": {"OBJECT_NAME": "FENGYUN 1C DEB", "OBJECT_ID": "1999-025BQS", "EPOCH": "2025-12-12T06:47:42.135648", "MEAN_MOTION": 14.20717591, "ECCENTRICITY": 0.00716141, "INCLINATION": 98.7168, "RA_OF_ASC_NODE": 186.2993, "ARG_OF_PERICENTER": 110.4179, "MEAN_ANOMALY": 250.4707, "EPHEMERIS_TYPE": 0, "CLASSIFICATION_TYPE": "U", "NORAD_CAT_ID": 31338, "ELEMENT_SET_NO": 999, "REV_AT_EPOCH": 63651, "BSTAR": 0.0038476398, "MEAN_MOTION_DOT": 8.479e-05, "MEAN_MOTION_DDOT": 0}, "tle": {"line1": "1 31338U 99025BQS 25346.28312657  .00008479  00000+0  38476-2 0  9994", "line2": "2 31338  98.7168 186.2993 0071614 110.4179 250.4707 14.20717591636512"}}, "geometry": {"type": "Point", "coordinates": [24.25486992137927, 61.58732673740721]}}, {"type": "Feature", "properties": {"norad_id": 31339, "name": "FENGYUN 1C DEB", "group": "fengyun-1c-debris", "lat": 70.54343962709369, "lon": -149.84913266471935, "alt_km": 889.0563363232868, "timestamp": "2025-12-13T18:50:04.712993+00:00", "meta": {"OBJECT_NAME": "FENGYUN 1C DEB", "OBJECT_ID": "1999-025BQT", "EPOCH": "2025-12-13T08:07:29.760096", "MEAN_MOTION": 14.12174065, "ECCENTRICITY": 0.00742926, "INCLINATION": 98.7144, "RA_OF_ASC_NODE": 3.9849, "ARG_OF_PERICENTER": 323.5099, "MEAN_ANOMALY": 36.1023, "EPHEMERIS_TYPE": 0, "CLASSIFICATION_TYPE": "U", "NORAD_CAT_ID": 31339, "ELEMENT_SET_NO": 999, "REV_AT_EPOCH": 95686, "BSTAR": 0.0015110277, "MEAN_MOTION_DOT": 2.805e-05, "MEAN_MOTION_DDOT": 0}, "tle": {"line1": "1 31339U 99025BQT 25347.33853889  .00002805  00000+0  15110-2 0  9996", "line2": "2 31339  98.7144   3.9849 0074292 323.5099  36.1023 14.12174065956862"}}, "geometry": {"type": "Point", "coordinates": [-149.84913266471935, 70.54343962709369]}}]}